NORAD_CAT_ID,OBJECT_NAME,OBJECT_TYPE,EPOCH,MEAN_MOTION,ECCENTRICITY,INCLINATION,RA_OF_ASC_NODE,ARG_OF_PERICENTER,MEAN_ANOMALY,BSTAR,MEAN_MOTION_DOT,MEAN_MOTION_DDOT,TLE_LINE0,TLE_LINE1,TLE_LINE2,SEMIMAJOR_AXIS,PERIOD,APOGEE,PERIGEE,DECAYED
53870.0,STARLINK-4732,PAYLOAD,2023-08-28 09:04:34,15.08835571,0.000122,53.2148,93.4489,87.7477,272.3655,-3.7989e-05,-8.92e-06,0.0,0 STARLINK-4732,1 53870U 22114BE  23240.37817967 -.00000892  00000-0 -37989-4 0  9993,2 53870  53.2148  93.4489 0001220  87.7477 272.3655 15.08835571 53315,6917.894,95.438,540.603,538.915,0.0
53870.0,STARLINK-4732,PAYLOAD,2023-08-28 20:12:16,15.08844416,0.0001222,53.2147,91.3671,87.5512,272.562,0.0004861,7.458e-05,0.0,0 STARLINK-4732,1 53870U 22114BE  23240.84186007  .00007458  00000-0  48610-3 0  9994,2 53870  53.2147  91.3671 0001222  87.5512 272.5620 15.08844416 53923,6917.867,95.437,540.577,538.887,0.0
53870.0,STARLINK-4732,PAYLOAD,2023-08-29 00:58:26,15.08848436,0.0001241,53.2146,90.475,87.4352,272.6782,0.00070992,0.00011031,0.0,0 STARLINK-4732,1 53870U 22114BE  23241.04057996  .00011031  00000-0  70992-3 0  9991,2 53870  53.2146  90.4750 0001241  87.4352 272.6782 15.08848436 53412,6917.855,95.437,540.578,538.861,0.0
53870.0,STARLINK-4732,PAYLOAD,2023-08-29 08:55:21,15.08841721,0.0001265,53.2146,88.9877,89.9056,270.2081,0.00054574,8.409e-05,0.0,0 STARLINK-4732,1 53870U 22114BE  23241.37178230  .00008409  00000-0  54574-3 0  9995,2 53870  53.2146  88.9877 0001265  89.9056 270.2081 15.08841721 53469,6917.875,95.437,540.615,538.865,0.0
53870.0,STARLINK-4732,PAYLOAD,2023-08-29 20:03:03,15.08847051,0.0001271,53.2143,86.9065,87.3501,272.7637,0.00055036,8.484e-05,0.0,0 STARLINK-4732,1 53870U 22114BE  23241.83546152  .00008484  00000-0  55036-3 0  9995,2 53870  53.2143  86.9065 0001271  87.3501 272.7637 15.08847051 54071,6917.859,95.437,540.603,538.845,0.0
53870.0,STARLINK-4732,PAYLOAD,2023-08-30 16:43:04,15.08843876,0.0001245,53.2145,83.04,88.0857,272.0277,0.00027545,4.099e-05,0.0,0 STARLINK-4732,1 53870U 22114BE  23242.69658231  .00004099  00000-0  27545-3 0  9994,2 53870  53.2145  83.0400 0001245  88.0857 272.0277 15.08843876 53665,6917.869,95.437,540.595,538.872,0.0
53870.0,STARLINK-4732,PAYLOAD,2023-08-30 19:53:51,15.08842272,0.0001281,53.2145,82.4452,86.0722,274.0416,0.00020795,3.023e-05,0.0,0 STARLINK-4732,1 53870U 22114BE  23242.82906258  .00003023  00000-0  20795-3 0  9990,2 53870  53.2145  82.4452 0001281  86.0722 274.0416 15.08842272 54223,6917.873,95.437,540.625,538.852,0.0
53870.0,STARLINK-4732,PAYLOAD,2023-08-31 14:58:28,15.08842403,0.0001422,53.2141,78.8777,78.2074,281.9077,0.0001689,2.401e-05,0.0,0 STARLINK-4732,1 53870U 22114BE  23243.62394295  .00002401  00000-0  16890-3 0  9991,2 53870  53.2141  78.8777 0001422  78.2074 281.9077 15.08842403 53807,6917.873,95.437,540.722,538.754,0.0
53870.0,STARLINK-4732,PAYLOAD,2023-09-01 08:27:40,15.08940036,6.66e-05,53.214,75.6114,39.0566,321.0474,0.0031725,0.00050705,0.0,0 STARLINK-4732,1 53870U 22114BE  23244.35255164  .00050705  00000-0  31725-2 0  9996,2 53870  53.2140  75.6114 0000666  39.0566 321.0474 15.08940036 53916,6917.575,95.431,539.9,538.979,0.0
53870.0,STARLINK-4732,PAYLOAD,2023-09-01 13:13:54,15.08797666,7.79e-05,53.2145,74.719,53.536,306.5704,-1.3597e-05,-5.04e-06,0.0,0 STARLINK-4732,1 53870U 22114BE  23244.55132210 -.00000504  00000-0 -13597-4 0  9997,2 53870  53.2145  74.7190 0000779  53.5360 306.5704 15.08797666 54489,6918.01,95.44,540.414,539.336,0.0
53870.0,STARLINK-4732,PAYLOAD,2023-09-01 21:10:48,15.0884702,0.00012,53.2152,73.2274,74.8681,285.2444,0.00019661,2.843e-05,0.0,0 STARLINK-4732,1 53870U 22114BE  23244.88250025  .00002843  00000-0  19661-3 0  9991,2 53870  53.2152  73.2274 0001200  74.8681 285.2444 15.08847020 53995,6917.859,95.437,540.554,538.894,0.0
53870.0,STARLINK-4732,PAYLOAD,2023-09-02 13:04:39,15.08834338,9.98e-05,53.2167,70.2513,86.8864,273.2242,6.2185e-06,-1.89e-06,0.0,0 STARLINK-4732,1 53870U 22114BE  23245.54490460 -.00000189  00000-0  62185-5 0  9997,2 53870  53.2167  70.2513 0000998  86.8864 273.2242 15.08834338 54636,6917.898,95.438,540.453,539.072,0.0
53870.0,STARLINK-4732,PAYLOAD,2023-09-02 16:15:26,15.08836095,9.44e-05,53.2168,69.6566,89.3721,270.738,1.0808e-05,-1.16e-06,0.0,0 STARLINK-4732,1 53870U 22114BE  23245.67738533 -.00000116  00000-0  10808-4 0  9991,2 53870  53.2168  69.6566 0000944  89.3721 270.7380 15.08836095 54118,6917.892,95.438,540.41,539.104,0.0
53870.0,STARLINK-4732,PAYLOAD,2023-09-02 19:26:12,15.08841965,0.0001065,53.2162,69.0632,79.9279,280.1834,0.00011067,1.474e-05,0.0,0 STARLINK-4732,1 53870U 22114BE  23245.80986369  .00001474  00000-0  11067-3 0  9992,2 53870  53.2162  69.0632 0001065  79.9279 280.1834 15.08841965 54670,6917.874,95.437,540.476,539.003,0.0
53870.0,STARLINK-4732,PAYLOAD,2023-09-03 08:09:17,15.08836072,0.000115,53.216,66.6845,79.3697,280.7424,9.3656e-05,1.203e-05,0.0,0 STARLINK-4732,1 53870U 22114BE  23246.33978761  .00001203  00000-0  93656-4 0  9993,2 53870  53.2160  66.6845 0001150  79.3697 280.7424 15.08836072 54753,6917.892,95.438,540.553,538.962,0.0
53870.0,STARLINK-4732,PAYLOAD,2023-09-03 20:52:22,15.08845633,0.0001232,53.2159,64.3056,81.5815,278.5317,0.00015778,2.224e-05,0.0,0 STARLINK-4732,1 53870U 22114BE  23246.86970285  .00002224  00000-0  15778-3 0  9996,2 53870  53.2159  64.3056 0001232  81.5815 278.5317 15.08845633 54296,6917.863,95.437,540.58,538.876,0.0
53870.0,STARLINK-4732,PAYLOAD,2023-09-04 11:10:51,15.08835916,0.000128,53.2156,61.6289,85.6603,274.4535,5.2353e-05,5.45e-06,0.0,0 STARLINK-4732,1 53870U 22114BE  23247.46586912  .00000545  00000-0  52353-4 0  9998,2 53870  53.2156  61.6289 0001280  85.6603 274.4535 15.08835916 54384,6917.893,95.438,540.643,538.872,0.0
53870.0,STARLINK-4732,PAYLOAD,2023-09-05 11:01:38,15.0883876,0.0001252,53.2168,57.1684,85.4983,274.6152,9.7781e-05,1.269e-05,0.0,0 STARLINK-4732,1 53870U 22114BE  23248.45947226  .00001269  00000-0  97781-4 0  9995,2 53870  53.2168  57.1684 0001252  85.4983 274.6152 15.08838760 55078,6917.884,95.438,540.615,538.883,0.0
53870.0,STARLINK-4732,PAYLOAD,2023-09-05 17:23:10,15.08841492,0.0001193,53.2168,55.9793,85.1032,275.0097,0.00011811,1.592e-05,0.0,0 STARLINK-4732,1 53870U 22114BE  23248.72443015  .00001592  00000-0  11811-3 0  9990,2 53870  53.2168  55.9793 0001193  85.1032 275.0097 15.08841492 54574,6917.876,95.437,540.566,538.916,0.0
53870.0,STARLINK-4732,PAYLOAD,2023-09-06 04:30:52,15.08844706,0.0001199,53.2166,53.8975,85.4682,274.6447,0.00011359,1.521e-05,0.0,0 STARLINK-4732,1 53870U 22114BE  23249.18810804  .00001521  00000-0  11359-3 0  9994,2 53870  53.2166  53.8975 0001199  85.4682 274.6447 15.08844706 55184,6917.866,95.437,540.56,538.902,0.0
53870.0,STARLINK-4732,PAYLOAD,2023-09-06 20:24:43,15.08847649,0.0001228,53.2168,50.9235,84.8813,275.232,0.00015073,2.112e-05,0.0,0 STARLINK-4732,1 53870U 22114BE  23249.85050615  .00002112  00000-0  15073-3 0  9998,2 53870  53.2168  50.9235 0001228  84.8813 275.2320 15.08847649 55282,6917.857,95.437,540.572,538.872,0.0
53870.0,STARLINK-4732,PAYLOAD,2023-09-07 10:43:12,15.08841913,0.0001275,53.2164,48.2471,87.6104,272.5034,9.5923e-05,1.239e-05,0.0,0 STARLINK-4732,1 53870U 22114BE  23250.44667033  .00001239  00000-0  95923-4 0  9995,2 53870  53.2164  48.2471 0001275  87.6104 272.5034 15.08841913 54836,6917.875,95.437,540.622,538.858,0.0
53870.0,STARLINK-4732,PAYLOAD,2023-09-07 12:18:35,15.08840153,0.0001271,53.2166,47.9496,88.0096,272.1041,7.6927e-05,9.37e-06,0.0,0 STARLINK-4732,1 53870U 22114BE  23250.51291151  .00000937  00000-0  76927-4 0  9994,2 53870  53.2166  47.9496 0001271  88.0096 272.1041 15.08840153 55382,6917.88,95.438,540.624,538.866,0.0
53870.0,STARLINK-4732,PAYLOAD,2023-09-08 13:44:45,15.088411,0.0001229,53.2171,43.1918,91.3471,268.7662,7.6218e-05,9.25e-06,0.0,0 STARLINK-4732,1 53870U 22114BE  23251.57275059  .00000925  00000-0  76218-4 0  9990,2 53870  53.2171  43.1918 0001229  91.3471 268.7662 15.08841100 55543,6917.877,95.437,540.592,538.892,0.0
53870.0,STARLINK-4732,PAYLOAD,2023-09-08 16:55:31,15.08841482,0.0001133,53.2174,42.597,93.3116,266.8006,7.5859e-05,9.2e-06,0.0,0 STARLINK-4732,1 53870U 22114BE  23251.70522976  .00000920  00000-0  75859-4 0  9993,2 53870  53.2174  42.5970 0001133  93.3116 266.8006 15.08841482 55026,6917.876,95.437,540.525,538.957,0.0
53870.0,STARLINK-4732,PAYLOAD,2023-09-09 13:35:32,15.08838445,0.0001175,53.2174,38.731,96.6592,263.4534,6.1192e-05,6.86e-06,0.0,0 STARLINK-4732,1 53870U 22114BE  23252.56635280  .00000686  00000-0  61192-4 0  9995,2 53870  53.2174  38.7310 0001175  96.6592 263.4534 15.08838445 55698,6917.885,95.438,540.563,538.937,0.0
53870.0,STARLINK-4732,PAYLOAD,2023-09-10 10:15:33,15.08840754,0.0001182,53.2171,34.8661,94.8804,265.2323,3.0991e-05,2.05e-06,0.0,0 STARLINK-4732,1 53870U 22114BE  23253.42747369  .00000205  00000-0  30991-4 0  9993,2 53870  53.2171  34.8661 0001182  94.8804 265.2323 15.08840754 55282,6917.878,95.438,540.561,538.925,0.0
53870.0,STARLINK-4732,PAYLOAD,2023-09-10 13:26:19,15.08841396,0.0001215,53.2174,34.2713,91.5948,268.5183,0.0001006,1.314e-05,0.0,0 STARLINK-4732,1 53870U 22114BE  23253.55995151  .00001314  00000-0  10060-3 0  9997,2 53870  53.2174  34.2713 0001215  91.5948 268.5183 15.08841396 55842,6917.876,95.437,540.582,538.901,0.0
53870.0,STARLINK-4732,PAYLOAD,2023-09-11 13:17:07,15.08834199,0.0001233,53.2178,29.8112,90.4028,269.7106,-1.3866e-05,-5.08e-06,0.0,0 STARLINK-4732,1 53870U 22114BE  23254.55355996 -.00000508  00000-0 -13866-4 0  9999,2 53870  53.2178  29.8112 0001233  90.4028 269.7106 15.08834199 55993,6917.898,95.438,540.616,538.91,0.0
53870.0,STARLINK-4732,PAYLOAD,2023-09-11 16:27:53,15.08837862,0.0001556,53.2175,29.2161,84.0703,276.0467,1.8928e-05,1.3e-07,0.0,0 STARLINK-4732,1 53870U 22114BE  23254.68603740  .00000013  00000-0  18928-4 0  9999,2 53870  53.2175  29.2161 0001556  84.0703 276.0467 15.08837862 55479,6917.887,95.438,540.828,538.676,0.0
